{
  "type": "FeatureCollection",
  "features": [
    {
      "type": "Feature",
      "properties": {
        "norad_id": 41890,
        "name": "CYGFM07",
        "group": "weather",
        "lat": -14.776185452975998,
        "lon": -16.656351776232352,
        "alt_km": 417.68366059015625,
        "timestamp": "2025-12-15T04:01:20.086430+00:00",
        "meta_object_name": "CYGFM07",
        "meta_object_id": "2016-078G",
        "meta_epoch": "2025-12-14T06:29:47.559840",
        "meta_mean_motion": 15.50081165,
        "meta_eccentricity": 0.00100153,
        "meta_inclination": 34.9483,
        "meta_ra_of_asc_node": 11.4157,
        "meta_arg_of_pericenter": 228.8851,
        "meta_mean_anomaly": 131.1007,
        "meta_ephemeris_type": 0,
        "meta_classification_type": "U",
        "meta_norad_cat_id": 41890,
        "meta_element_set_no": 999,
        "meta_rev_at_epoch": 50019,
        "meta_bstar": 0.0004013252,
        "meta_mean_motion_dot": 0.00023335,
        "meta_mean_motion_ddot": 0,
        "tle_line1": "1 41890U 16078G   25348.27068935  .00023335  00000+0  40133-3 0  9995",
        "tle_line2": "2 41890  34.9483  11.4157 0010015 228.8851 131.1007 15.50081165500195"
      },
      "geometry": {
        "type": "Point",
        "coordinates": [
          -16.656351776232352,
          -14.776185452975998
        ]
      }
    },
    {
      "type": "Feature",
      "properties": {
        "norad_id": 41891,
        "name": "CYGFM03",
        "group": "weather",
        "lat": 7.220702749960168,
        "lon": 177.0004010373661,
        "alt_km": 411.1535430811291,
        "timestamp": "2025-12-15T04:01:20.086441+00:00",
        "meta_object_name": "CYGFM03",
        "meta_object_id": "2016-078H",
        "meta_epoch": "2025-12-14T07:12:31.379616",
        "meta_mean_motion": 15.49981967,
        "meta_eccentricity": 0.00093997,
        "meta_inclination": 34.9438,
        "meta_ra_of_asc_node": 13.1407,
        "meta_arg_of_pericenter": 216.7874,
        "meta_mean_anomaly": 143.2204,
        "meta_ephemeris_type": 0,
        "meta_classification_type": "U",
        "meta_norad_cat_id": 41891,
        "meta_element_set_no": 999,
        "meta_rev_at_epoch": 50017,
        "meta_bstar": 0.00039413301,
        "meta_mean_motion_dot": 0.00022828,
        "meta_mean_motion_ddot": 0,
        "tle_line1": "1 41891U 16078H   25348.30036319  .00022828  00000+0  39413-3 0  9996",
        "tle_line2": "2 41891  34.9438  13.1407 0009399 216.7874 143.2204 15.49981967500175"
      },
      "geometry": {
        "type": "Point",
        "coordinates": [
          177.0004010373661,
          7.220702749960168
        ]
      }
    },
    {
      "type": "Feature",
      "properties": {
        "norad_id": 43010,
        "name": "FENGYUN 3D",
        "group": "weather",
        "lat": 10.67328527586353,
        "lon": 137.22359077463244,
        "alt_km": 827.117699508959,
        "timestamp": "2025-12-15T04:01:20.086452+00:00",
        "meta_object_name": "FENGYUN 3D",
        "meta_object_id": "2017-072A",
        "meta_epoch": "2025-12-14T08:37:20.305920",
        "meta_mean_motion": 14.1968451,
        "meta_eccentricity": 9.974e-05,
        "meta_inclination": 98.9892,
        "meta_ra_of_asc_node": 314.6937,
        "meta_arg_of_pericenter": 175.6014,
        "meta_mean_anomaly": 184.517,
        "meta_ephemeris_type": 0,
        "meta_classification_type": "U",
        "meta_norad_cat_id": 43010,
        "meta_element_set_no": 999,
        "meta_rev_at_epoch": 41876,
        "meta_bstar": 3.8742024e-05,
        "meta_mean_motion_dot": 3.6e-07,
        "meta_mean_motion_ddot": 0,
        "tle_line1": "1 43010U 17072A   25348.35926280  .00000036  00000+0  38742-4 0  9998",
        "tle_line2": "2 43010  98.9892 314.6937 0000997 175.6014 184.5170 14.19684510418768"
      },
      "geometry": {
        "type": "Point",
        "coordinates": [
          137.22359077463244,
          10.67328527586353
        ]
      }
    },
    {
      "type": "Feature",
      "properties": {
        "norad_id": 43013,
        "name": "NOAA 20 (JPSS-1)",
        "group": "weather",
        "lat": -39.56807611856382,
        "lon": -67.2421696623483,
        "alt_km": 834.2298993305003,
        "timestamp": "2025-12-15T04:01:20.086464+00:00",
        "meta_object_name": "NOAA 20 (JPSS-1)",
        "meta_object_id": "2017-073A",
        "meta_epoch": "2025-12-14T07:54:39.837600",
        "meta_mean_motion": 14.19526269,
        "meta_eccentricity": 0.00021475,
        "meta_inclination": 98.76,
        "meta_ra_of_asc_node": 284.609,
        "meta_arg_of_pericenter": 85.0161,
        "meta_mean_anomaly": 275.1261,
        "meta_ephemeris_type": 0,
        "meta_classification_type": "U",
        "meta_norad_cat_id": 43013,
        "meta_element_set_no": 999,
        "meta_rev_at_epoch": 41824,
        "meta_bstar": 7.9065099e-05,
        "meta_mean_motion_dot": 1.23e-06,
        "meta_mean_motion_ddot": 0,
        "tle_line1": "1 43013U 17073A   25348.32962775  .00000123  00000+0  79065-4 0  9998",
        "tle_line2": "2 43013  98.7600 284.6090 0002147  85.0161 275.1261 14.19526269418245"
      },
      "geometry": {
        "type": "Point",
        "coordinates": [
          -67.2421696623483,
          -39.56807611856382
        ]
      }
    },
    {
      "type": "Feature",
      "properties": {
        "norad_id": 43226,
        "name": "GOES 17",
        "group": "weather",
        "lat": -0.2388885731264103,
        "lon": 54.93140402501327,
        "alt_km": 35796.06174897905,
        "timestamp": "2025-12-15T04:01:20.086477+00:00",
        "meta_object_name": "GOES 17",
        "meta_object_id": "2018-022A",
        "meta_epoch": "2025-12-14T06:08:39.264000",
        "meta_mean_motion": 1.00271685,
        "meta_eccentricity": 0.00032008,
        "meta_inclination": 0.4637,
        "meta_ra_of_asc_node": 89.0985,
        "meta_arg_of_pericenter": 189.1696,
        "meta_mean_anomaly": 167.5791,
        "meta_ephemeris_type": 0,
        "meta_classification_type": "U",
        "meta_norad_cat_id": 43226,
        "meta_element_set_no": 999,
        "meta_rev_at_epoch": 2856,
        "meta_bstar": 0,
        "meta_mean_motion_dot": -1.65e-06,
        "meta_mean_motion_ddot": 0,
        "tle_line1": "1 43226U 18022A   25348.25601000 -.00000165  00000+0  00000+0 0  9997",
        "tle_line2": "2 43226   0.4637  89.0985 0003200 189.1696 167.5791  1.00271685 28560"
      },
      "geometry": {
        "type": "Point",
        "coordinates": [
          54.93140402501327,
          -0.2388885731264103
        ]
      }
    },
    {
      "type": "Feature",
      "properties": {
        "norad_id": 43491,
        "name": "FENGYUN 2H",
        "group": "weather",
        "lat": 1.5382331240514353,
        "lon": -136.22695531559077,
        "alt_km": 35775.63991937853,
        "timestamp": "2025-12-15T04:01:20.086490+00:00",
        "meta_object_name": "FENGYUN 2H",
        "meta_object_id": "2018-050A",
        "meta_epoch": "2025-12-14T01:48:42.025824",
        "meta_mean_motion": 1.0027128,
        "meta_eccentricity": 0.00027131,
        "meta_inclination": 2.5546,
        "meta_ra_of_asc_node": 81.3164,
        "meta_arg_of_pericenter": 167.3456,
        "meta_mean_anomaly": 300.87,
        "meta_ephemeris_type": 0,
        "meta_classification_type": "U",
        "meta_norad_cat_id": 43491,
        "meta_element_set_no": 999,
        "meta_rev_at_epoch": 2758,
        "meta_bstar": 0,
        "meta_mean_motion_dot": -1.13e-06,
        "meta_mean_motion_ddot": 0,
        "tle_line1": "1 43491U 18050A   25348.07548641 -.00000113  00000+0  00000+0 0  9996",
        "tle_line2": "2 43491   2.5546  81.3164 0002713 167.3456 300.8700  1.00271280 27584"
      },
      "geometry": {
        "type": "Point",
        "coordinates": [
          -136.22695531559077,
          1.5382331240514353
        ]
      }
    },
    {
      "type": "Feature",
      "properties": {
        "norad_id": 43689,
        "name": "METOP-C",
        "group": "weather",
        "lat": 60.64705166217422,
        "lon": -117.31411381943532,
        "alt_km": 814.3210207915963,
        "timestamp": "2025-12-15T04:01:20.086502+00:00",
        "meta_object_name": "METOP-C",
        "meta_object_id": "2018-087A",
        "meta_epoch": "2025-12-14T05:30:26.867232",
        "meta_mean_motion": 14.21485111,
        "meta_eccentricity": 0.00011779,
        "meta_inclination": 98.693,
        "meta_ra_of_asc_node": 45.9764,
        "meta_arg_of_pericenter": 36.7654,
        "meta_mean_anomaly": 323.3604,
        "meta_ephemeris_type": 0,
        "meta_classification_type": "U",
        "meta_norad_cat_id": 43689,
        "meta_element_set_no": 999,
        "meta_rev_at_epoch": 36855,
        "meta_bstar": 0.00010945367,
        "meta_mean_motion_dot": 1.96e-06,
        "meta_mean_motion_ddot": 0,
        "tle_line1": "1 43689U 18087A   25348.22947763  .00000196  00000+0  10945-3 0  9993",
        "tle_line2": "2 43689  98.6930  45.9764 0001177  36.7654 323.3604 14.21485111368555"
      },
      "geometry": {
        "type": "Point",
        "coordinates": [
          -117.31411381943532,
          60.64705166217422
        ]
      }
    }
  ]
}